IRIDIUM 159             
1 43578U 18061K   25248.27158329  .00000454  00000+0  15495-3 0  9990
2 43578  86.4039 175.7720 0002132  76.9139 283.2294 14.34208380372545
IRIDIUM 180             
1 43922U 19002A   25248.61993944  .00000103  00000+0  29880-4 0  9992
2 43922  86.3944 112.5866 0001980  87.8917 272.2505 14.34218457348202
IRIDIUM 176             
1 43923U 19002B   25248.57820091  .00000411  00000+0  61314-4 0  9990
2 43923  86.6068 112.5890 0002622 100.0718 260.0795 14.72252228357371
IRIDIUM 168             
1 43924U 19002C   25248.61359872  .00000345  00000+0  11629-3 0  9999
2 43924  86.3944 112.6584 0002101  86.3251 273.8185 14.34216619348189
IRIDIUM 173             
1 43925U 19002D   25248.60091252 -.00000135  00000+0 -55170-4 0  9993
2 43925  86.3946 112.5641 0001892  91.4338 268.7075 14.34216766348166
IRIDIUM 169             
1 43926U 19002E   25248.56047242  .00000186  00000+0  54384-4 0  9999
2 43926  86.4271 144.1957 0002652 113.8337 246.3140 14.38606643349306
IRIDIUM 172             
1 43927U 19002F   25248.59457028  .00000065  00000+0  16197-4 0  9996
2 43927  86.3943 112.5739 0001809  82.9161 277.2241 14.34217765348171
IRIDIUM 175             
1 43928U 19002G   25248.57329426  .00000660  00000+0  10070-3 0  9999
2 43928  86.1472  60.5087 0003278  90.8836 269.2756 14.72236181357362
